{"type": "FeatureCollection", "features": [ {"type": "Feature", "properties": {"norad_id": 43262, "name": "GAOFEN-1 04", "group": "resource", "lat": 17.331131806403405, "lon": 45.16274357937741, "alt_km": 640.5049537219802, "timestamp": "2025-12-15T20:48:53.542808+00:00", "meta": {"OBJECT_NAME": "GAOFEN-1 04", "OBJECT_ID": "2018-031D", "EPOCH": "2025-12-14T23:35:28.918176", "MEAN_MOTION": 14.76455838, "ECCENTRICITY": 9.615e-05, "INCLINATION": 98.0808, "RA_OF_ASC_NODE": 46.8192, "ARG_OF_PERICENTER": 59.0635, "MEAN_ANOMALY": 301.0668, "EPHEMERIS_TYPE": 0, "CLASSIFICATION_TYPE": "U", "NORAD_CAT_ID": 43262, "ELEMENT_SET_NO": 999, "REV_AT_EPOCH": 41550, "BSTAR": 0.00015501811, "MEAN_MOTION_DOT": 1.027e-05, "MEAN_MOTION_DDOT": 0}, "tle": {"line1": "1 43262U 18031D   25348.98297359  .00001027  00000+0  15502-3 0  9999", "line2": "2 43262  98.0808  46.8192 0000961  59.0635 301.0668 14.76455838415506"}}, "geometry": {"type": "Point", "coordinates": [45.16274357937741, 17.331131806403405]}}, {"type": "Feature", "properties": {"norad_id": 43437, "name": "SENTINEL-3B", "group": "resource", "lat": -14.59984078782533, "lon": 57.27398366447816, "alt_km": 807.7201185034655, "timestamp": "2025-12-15T20:48:53.542818+00:00", "meta": {"OBJECT_NAME": "SENTINEL-3B", "OBJECT_ID": "2018-039A", "EPOCH": "2025-12-14T21:19:12.976032", "MEAN_MOTION": 14.26734689, "ECCENTRICITY": 0.00016438, "INCLINATION": 98.6266, "RA_OF_ASC_NODE": 54.043, "ARG_OF_PERICENTER": 99.9545, "MEAN_ANOMALY": 260.1821, "EPHEMERIS_TYPE": 0, "CLASSIFICATION_TYPE": "U", "NORAD_CAT_ID": 43437, "ELEMENT_SET_NO": 999, "REV_AT_EPOCH": 39784, "BSTAR": 7.1664972e-05, "MEAN_MOTION_DOT": 1.3e-06, "MEAN_MOTION_DDOT": 0}, "tle": {"line1": "1 43437U 18039A   25348.88834463  .00000130  00000+0  71665-4 0  9990", "line2": "2 43437  98.6266  54.0430 0001643  99.9545 260.1821 14.26734689397842"}}, "geometry": {"type": "Point", "coordinates": [57.27398366447816, -14.59984078782533]}}, {"type": "Feature", "properties": {"norad_id": 43461, "name": "GAOFEN-5 01", "group": "resource", "lat": -6.970228689135299, "lon": -46.071776587175755, "alt_km": 695.1614375010386, "timestamp": "2025-12-15T20:48:53.542828+00:00", "meta": {"OBJECT_NAME": "GAOFEN-5 01", "OBJECT_ID": "2018-043A", "EPOCH": "2025-12-14T21:49:34.617216", "MEAN_MOTION": 14.60411973, "ECCENTRICITY": 8.102e-05, "INCLINATION": 98.4327, "RA_OF_ASC_NODE": 311.9145, "ARG_OF_PERICENTER": 331.2279, "MEAN_ANOMALY": 28.8876, "EPHEMERIS_TYPE": 0, "CLASSIFICATION_TYPE": "U", "NORAD_CAT_ID": 43461, "ELEMENT_SET_NO": 999, "REV_AT_EPOCH": 40479, "BSTAR": 0.00010858328, "MEAN_MOTION_DOT": 4.77e-06, "MEAN_MOTION_DDOT": 0}, "tle": {"line1": "1 43461U 18043A   25348.90942844  .00000477  00000+0  10858-3 0  9998", "line2": "2 43461  98.4327 311.9145 0000810 331.2279  28.8876 14.60411973404792"}}, "geometry": {"type": "Point", "coordinates": [-46.071776587175755, -6.970228689135299]}}, {"type": "Feature", "properties": {"norad_id": 43484, "name": "GAOFEN-6", "group": "resource", "lat": 9.60613931145677, "lon": -124.64117939030437, "alt_km": 645.8508338003558, "timestamp": "2025-12-15T20:48:53.542838+00:00", "meta": {"OBJECT_NAME": "GAOFEN-6", "OBJECT_ID": "2018-048A", "EPOCH": "2025-12-14T22:54:17.642304", "MEAN_MOTION": 14.76573293, "ECCENTRICITY": 0.00131376, "INCLINATION": 97.8031, "RA_OF_ASC_NODE": 53.1467, "ARG_OF_PERICENTER": 57.2698, "MEAN_ANOMALY": 302.9777, "EPHEMERIS_TYPE": 0, "CLASSIFICATION_TYPE": "U", "NORAD_CAT_ID": 43484, "ELEMENT_SET_NO": 999, "REV_AT_EPOCH": 40620, "BSTAR": 0.00021012334, "MEAN_MOTION_DOT": 1.419e-05, "MEAN_MOTION_DDOT": 0}, "tle": {"line1": "1 43484U 18048A   25348.95437086  .00001419  00000+0  21012-3 0  9991", "line2": "2 43484  97.8031  53.1467 0013137  57.2698 302.9777 14.76573293406205"}}, "geometry": {"type": "Point", "coordinates": [-124.64117939030437, 9.60613931145677]}}, {"type": "Feature", "properties": {"norad_id": 43585, "name": "GAOFEN-11 01", "group": "resource", "lat": 72.29941441249724, "lon": 29.58940635254928, "alt_km": 413.83024364222274, "timestamp": "2025-12-15T20:48:53.542849+00:00", "meta": {"OBJECT_NAME": "GAOFEN-11 01", "OBJECT_ID": "2018-063A", "EPOCH": "2025-12-14T22:47:45.885696", "MEAN_MOTION": 15.49289321, "ECCENTRICITY": 0.00042307, "INCLINATION": 97.1568, "RA_OF_ASC_NODE": 51.8649, "ARG_OF_PERICENTER": 302.8292, "MEAN_ANOMALY": 57.2552, "EPHEMERIS_TYPE": 0, "CLASSIFICATION_TYPE": "U", "NORAD_CAT_ID": 43585, "ELEMENT_SET_NO": 999, "REV_AT_EPOCH": 41176, "BSTAR": 0.00020481715, "MEAN_MOTION_DOT": 0.00011109, "MEAN_MOTION_DDOT": 0}, "tle": {"line1": "1 43585U 18063A   25348.94983664  .00011109  00000+0  20482-3 0  9994", "line2": "2 43585  97.1568  51.8649 0004230 302.8292  57.2552 15.49289321411760"}}, "geometry": {"type": "Point", "coordinates": [29.58940635254928, 72.29941441249724]}}, {"type": "Feature", "properties": {"norad_id": 43613, "name": "ICESAT-2", "group": "resource", "lat": -66.61298773783852, "lon": -113.77260870399599, "alt_km": 489.88821230569283, "timestamp": "2025-12-15T20:48:53.542859+00:00", "meta": {"OBJECT_NAME": "ICESAT-2", "OBJECT_ID": "2018-070A", "EPOCH": "2025-12-14T21:32:04.284384", "MEAN_MOTION": 15.28298004, "ECCENTRICITY": 0.00025917, "INCLINATION": 92.0049, "RA_OF_ASC_NODE": 241.3195, "ARG_OF_PERICENTER": 137.3514, "MEAN_ANOMALY": 222.7937, "EPHEMERIS_TYPE": 0, "CLASSIFICATION_TYPE": "U", "NORAD_CAT_ID": 43613, "ELEMENT_SET_NO": 999, "REV_AT_EPOCH": 40431, "BSTAR": 0.00031800887, "MEAN_MOTION_DOT": 8.763e-05, "MEAN_MOTION_DDOT": 0}, "tle": {"line1": "1 43613U 18070A   25348.89727181  .00008763  00000+0  31801-3 0  9997", "line2": "2 43613  92.0049 241.3195 0002591 137.3514 222.7937 15.28298004404312"}}, "geometry": {"type": "Point", "coordinates": [-113.77260870399599, -66.61298773783852]}}, {"type": "Feature", "properties": {"norad_id": 43719, "name": "HYSIS", "group": "resource", "lat": -48.26596846102355, "lon": -136.2530227345033, "alt_km": 641.3010385189682, "timestamp": "2025-12-15T20:48:53.542869+00:00", "meta": {"OBJECT_NAME": "HYSIS", "OBJECT_ID": "2018-096A", "EPOCH": "2025-12-14T22:40:12.614880", "MEAN_MOTION": 14.78655044, "ECCENTRICITY": 0.00012643, "INCLINATION": 98.0099, "RA_OF_ASC_NODE": 51.9112, "ARG_OF_PERICENTER": 55.62, "MEAN_ANOMALY": 304.513, "EPHEMERIS_TYPE": 0, "CLASSIFICATION_TYPE": "U", "NORAD_CAT_ID": 43719, "ELEMENT_SET_NO": 999, "REV_AT_EPOCH": 38019, "BSTAR": 0.00027582251, "MEAN_MOTION_DOT": 1.969e-05, "MEAN_MOTION_DDOT": 0}, "tle": {"line1": "1 43719U 18096A   25348.94459045  .00001969  00000+0  27582-3 0  9991", "line2": "2 43719  98.0099  51.9112 0001264  55.6200 304.5130 14.78655044380192"}}, "geometry": {"type": "Point", "coordinates": [-136.2530227345033, -48.26596846102355]}}, {"type": "Feature", "properties": {"norad_id": 43783, "name": "KAZSTSAT", "group": "resource", "lat": -22.245722059410745, "lon": 27.98908638581089, "alt_km": 570.4641337098064, "timestamp": "2025-12-15T20:48:53.542880+00:00", "meta": {"OBJECT_NAME": "KAZSTSAT", "OBJECT_ID": "2018-099AB", "EPOCH": "2025-12-14T16:05:03.549408", "MEAN_MOTION": 14.99358736, "ECCENTRICITY": 0.00058816, "INCLINATION": 97.4557, "RA_OF_ASC_NODE": 23.7728, "ARG_OF_PERICENTER": 321.8607, "MEAN_ANOMALY": 38.22, "EPHEMERIS_TYPE": 0, "CLASSIFICATION_TYPE": "U", "NORAD_CAT_ID": 43783, "ELEMENT_SET_NO": 999, "REV_AT_EPOCH": 38365, "BSTAR": 9.6030563e-05, "MEAN_MOTION_DOT": 1.119e-05, "MEAN_MOTION_DDOT": 0}, "tle": {"line1": "1 43783U 18099AB  25348.67017997  .00001119  00000+0  96031-4 0  9994", "line2": "2 43783  97.4557  23.7728 0005881 321.8607  38.2200 14.99358736383657"}}, "geometry": {"type": "Point", "coordinates": [27.98908638581089, -22.245722059410745]}}, {"type": "Feature", "properties": {"norad_id": 43831, "name": "SAUDISAT 5A", "group": "resource", "lat": -33.66278342367876, "lon": 54.91984082526087, "alt_km": 496.3458205450761, "timestamp": "2025-12-15T20:48:53.542892+00:00", "meta": {"OBJECT_NAME": "SAUDISAT 5A", "OBJECT_ID": "2018-102A", "EPOCH": "2025-12-14T22:55:35.469696", "MEAN_MOTION": 15.25688162, "ECCENTRICITY": 0.00116816, "INCLINATION": 97.3357, "RA_OF_ASC_NODE": 49.1035, "ARG_OF_PERICENTER": 69.3805, "MEAN_ANOMALY": 290.8685, "EPHEMERIS_TYPE": 0, "CLASSIFICATION_TYPE": "U", "NORAD_CAT_ID": 43831, "ELEMENT_SET_NO": 999, "REV_AT_EPOCH": 38756, "BSTAR": 0.00019024174, "MEAN_MOTION_DOT": 4.783e-05, "MEAN_MOTION_DDOT": 0}, "tle": {"line1": "1 43831U 18102A   25348.95527164  .00004783  00000+0  19024-3 0  9992", "line2": "2 43831  97.3357  49.1035 0011681  69.3805 290.8685 15.25688162387566"}}, "geometry": {"type": "Point", "coordinates": [54.91984082526087, -33.66278342367876]}}, {"type": "Feature", "properties": {"norad_id": 43833, "name": "SAUDISAT 5B", "group": "resource", "lat": 22.050668428134063, "lon": 49.74728559422926, "alt_km": 481.5570054232121, "timestamp": "2025-12-15T20:48:53.542903+00:00", "meta": {"OBJECT_NAME": "SAUDISAT 5B", "OBJECT_ID": "2018-102C", "EPOCH": "2025-12-14T22:41:09.422016", "MEAN_MOTION": 15.26039101, "ECCENTRICITY": 0.00124156, "INCLINATION": 97.3451, "RA_OF_ASC_NODE": 51.8363, "ARG_OF_PERICENTER": 71.6515, "MEAN_ANOMALY": 288.6073, "EPHEMERIS_TYPE": 0, "CLASSIFICATION_TYPE": "U", "NORAD_CAT_ID": 43833, "ELEMENT_SET_NO": 999, "REV_AT_EPOCH": 38767, "BSTAR": 0.00018777871, "MEAN_MOTION_DOT": 4.771e-05, "MEAN_MOTION_DDOT": 0}, "tle": {"line1": "1 43833U 18102C   25348.94524794  .00004771  00000+0  18778-3 0  9991", "line2": "2 43833  97.3451  51.8363 0012415  71.6515 288.6073 15.26039101387679"}}, "geometry": {"type": "Point", "coordinates": [49.74728559422926, 22.050668428134063]}}]}